NORAD_CAT_ID,OBJECT_NAME,OBJECT_TYPE,EPOCH,MEAN_MOTION,ECCENTRICITY,INCLINATION,RA_OF_ASC_NODE,ARG_OF_PERICENTER,MEAN_ANOMALY,BSTAR,MEAN_MOTION_DOT,MEAN_MOTION_DDOT,TLE_LINE0,TLE_LINE1,TLE_LINE2,SEMIMAJOR_AXIS,PERIOD,APOGEE,PERIGEE,DECAYED
54789.0,STARLINK-5446,PAYLOAD,2024-05-09 17:53:39,15.0884706,0.0001329,53.2158,136.895,91.0771,269.0373,0.00014348,1.997e-05,0.0,0 STARLINK-5446,1 54789U 22175AH  24130.74559060  .00001997  00000-0  14348-3 0  9995,2 54789  53.2158 136.8950 0001329  91.0771 269.0373 15.08847060 77194,6917.859,95.437,540.643,538.804,0.0
54789.0,STARLINK-5446,PAYLOAD,2024-05-10 06:36:45,15.0883358,0.0001427,53.2164,134.5164,98.2916,261.8238,3.6945e-05,3e-06,0.0,0 STARLINK-5446,1 54789U 22175AH  24131.27552306  .00000300  00000-0  36945-4 0  9995,2 54789  53.2164 134.5164 0001427  98.2916 261.8238 15.08833580 77273,6917.9,95.438,540.752,538.778,0.0
54789.0,STARLINK-5446,PAYLOAD,2024-05-10 17:44:26,15.08836237,0.0001621,53.218,132.4314,101.7282,258.3892,8.056e-05,9.94e-06,0.0,0 STARLINK-5446,1 54789U 22175AH  24131.73920138  .00000994  00000-0  80560-4 0  9999,2 54789  53.2180 132.4314 0001621 101.7282 258.3892 15.08836237 79504,6917.892,95.438,540.878,538.636,0.0
54789.0,STARLINK-5446,PAYLOAD,2024-05-11 04:52:07,15.08853905,0.0001492,53.2165,130.3519,100.9984,259.1176,0.00012941,1.773e-05,0.0,0 STARLINK-5446,1 54789U 22175AH  24132.20286954  .00001773  00000-0  12941-3 0  9996,2 54789  53.2165 130.3519 0001492 100.9984 259.1176 15.08853905 77410,6917.838,95.437,540.735,538.671,0.0
54789.0,STARLINK-5446,PAYLOAD,2024-05-11 06:27:30,15.08858344,0.0001639,53.2171,130.0529,106.3879,253.7294,0.00018297,2.627e-05,0.0,0 STARLINK-5446,1 54789U 22175AH  24132.26910558  .00002627  00000-0  18297-3 0  9995,2 54789  53.2171 130.0529 0001639 106.3879 253.7294 15.08858344 79584,6917.824,95.436,540.823,538.555,0.0
54789.0,STARLINK-5446,PAYLOAD,2024-05-12 03:07:32,15.08829762,0.0001466,53.2153,126.1887,72.6791,287.4361,-0.00016172,-2.86e-05,0.0,0 STARLINK-5446,1 54789U 22175AH  24133.13023675 -.00002860  00000-0 -16172-3 0  9998,2 54789  53.2153 126.1887 0001466  72.6791 287.4361 15.08829762 77559,6917.912,95.438,540.791,538.763,0.0
54789.0,STARLINK-5446,PAYLOAD,2024-05-12 04:42:55,15.08837625,0.0001464,53.2157,125.8871,77.8662,282.2494,-0.00031093,-5.233e-05,0.0,0 STARLINK-5446,1 54789U 22175AH  24133.19647439 -.00005233  00000-0 -31093-3 0  9990,2 54789  53.2157 125.8871 0001464  77.8662 282.2494 15.08837625 79722,6917.888,95.438,540.765,538.74,0.0
54789.0,STARLINK-5446,PAYLOAD,2024-05-13 04:33:42,15.08832819,0.0001587,53.2155,121.4258,62.4633,297.652,-0.00010907,-2.023e-05,0.0,0 STARLINK-5446,1 54789U 22175AH  24134.19008049 -.00002023  00000-0 -10907-3 0  9994,2 54789  53.2155 121.4258 0001587  62.4633 297.6520 15.08832819 77712,6917.902,95.438,540.865,538.669,0.0
54789.0,STARLINK-5446,PAYLOAD,2024-05-13 06:09:06,15.08834149,0.0001549,53.2165,121.1335,73.4911,286.6251,-6.0061e-05,-1.244e-05,0.0,0 STARLINK-5446,1 54789U 22175AH  24134.25631991 -.00001244  00000-0 -60061-4 0  9990,2 54789  53.2165 121.1335 0001549  73.4911 286.6251 15.08834149 79882,6917.898,95.438,540.835,538.692,0.0
54789.0,STARLINK-5446,PAYLOAD,2024-05-13 22:02:57,15.08830835,0.0001539,53.2162,118.1596,72.2574,287.8586,0.00026823,3.982e-05,0.0,0 STARLINK-5446,1 54789U 22175AH  24134.91872563  .00003982  00000-0  26823-3 0  9991,2 54789  53.2162 118.1596 0001539  72.2574 287.8586 15.08830835 79988,6917.908,95.438,540.838,538.709,0.0
54789.0,STARLINK-5446,PAYLOAD,2024-05-14 07:35:16,15.08843324,0.0001542,53.216,116.3763,75.1511,284.9651,0.00036663,5.552e-05,0.0,0 STARLINK-5446,1 54789U 22175AH  24135.31616267  .00005552  00000-0  36663-3 0  9991,2 54789  53.2160 116.3763 0001542  75.1511 284.9651 15.08843324 77884,6917.87,95.437,540.802,538.668,0.0
54789.0,STARLINK-5446,PAYLOAD,2024-05-14 15:32:11,15.08847941,0.0001535,53.216,114.8895,75.366,284.7502,0.00036248,5.487e-05,0.0,0 STARLINK-5446,1 54789U 22175AH  24135.64736080  .00005487  00000-0  36248-3 0  9999,2 54789  53.2160 114.8895 0001535  75.3660 284.7502 15.08847941 80091,6917.856,95.437,540.783,538.659,0.0
54789.0,STARLINK-5446,PAYLOAD,2024-05-15 04:15:17,15.08836859,0.000205,53.2182,112.512,83.049,277.0735,-1.6426e-06,-3.14e-06,0.0,0 STARLINK-5446,1 54789U 22175AH  24136.17728567 -.00000314  00000-0 -16426-5 0  9993,2 54789  53.2182 112.5120 0002050  83.0490 277.0735 15.08836859 78019,6917.89,95.438,541.173,538.337,0.0
54789.0,STARLINK-5446,PAYLOAD,2024-05-15 07:26:03,15.08842886,0.0001664,53.2163,111.916,79.2008,280.9172,0.00016173,2.287e-05,0.0,0 STARLINK-5446,1 54789U 22175AH  24136.30976370  .00002287  00000-0  16173-3 0  9991,2 54789  53.2163 111.9160 0001664  79.2008 280.9172 15.08842886 80194,6917.872,95.437,540.888,538.585,0.0
54789.0,STARLINK-5446,PAYLOAD,2024-05-15 21:44:31,15.088484,0.0001663,53.2165,109.2402,81.6727,278.4454,0.00022402,3.28e-05,0.0,0 STARLINK-5446,1 54789U 22175AH  24136.90592148  .00003280  00000-0  22402-3 0  9990,2 54789  53.2165 109.2402 0001663  81.6727 278.4454 15.08848400 80282,6917.855,95.437,540.87,538.569,0.0
54789.0,STARLINK-5446,PAYLOAD,2024-05-16 04:06:04,15.08848537,0.0001671,53.2162,108.0504,82.149,277.9692,0.00028429,4.24e-05,0.0,0 STARLINK-5446,1 54789U 22175AH  24137.17088132  .00004240  00000-0  28429-3 0  9995,2 54789  53.2162 108.0504 0001671  82.1490 277.9692 15.08848537 78164,6917.854,95.437,540.875,538.563,0.0
54789.0,STARLINK-5446,PAYLOAD,2024-05-16 15:13:45,15.08865669,0.0001497,53.216,105.9679,83.293,276.8233,0.00066099,0.00010255,0.0,0 STARLINK-5446,1 54789U 22175AH  24137.63455227  .00010255  00000-0  66099-3 0  9997,2 54789  53.2160 105.9679 0001497  83.2930 276.8233 15.08865669 80390,6917.802,95.436,540.703,538.631,0.0
54789.0,STARLINK-5446,PAYLOAD,2024-05-16 21:35:18,15.08852654,0.0002551,53.216,104.7801,80.5901,279.538,0.00032145,4.833e-05,0.0,0 STARLINK-5446,1 54789U 22175AH  24137.89951864  .00004833  00000-0  32145-3 0  9993,2 54789  53.2160 104.7801 0002551  80.5901 279.5380 15.08852654 80432,6917.842,95.437,541.471,537.942,0.0
54789.0,STARLINK-5446,PAYLOAD,2024-05-17 03:56:50,15.08843703,0.0001312,53.2148,103.5887,90.6674,269.4468,5.4617e-05,5.82e-06,0.0,0 STARLINK-5446,1 54789U 22175AH  24138.16447601  .00000582  00000-0  54617-4 0  9999,2 54789  53.2148 103.5887 0001312  90.6674 269.4468 15.08843703 78316,6917.869,95.437,540.642,538.826,0.0
54789.0,STARLINK-5446,PAYLOAD,2024-05-17 15:04:32,15.08856365,0.0001351,53.2156,101.5068,94.9166,265.1981,0.00048179,7.391e-05,0.0,0 STARLINK-5446,1 54789U 22175AH  24138.62815179  .00007391  00000-0  48179-3 0  9999,2 54789  53.2156 101.5068 0001351  94.9166 265.1981 15.08856365 78388,6917.83,95.437,540.63,538.761,0.0
54789.0,STARLINK-5446,PAYLOAD,2024-05-18 03:47:37,15.08833763,0.0001427,53.2161,99.1266,109.7196,250.395,0.00022564,3.304e-05,0.0,0 STARLINK-5446,1 54789U 22175AH  24139.15807849  .00003304  00000-0  22564-3 0  9993,2 54789  53.2161  99.1266 0001427 109.7196 250.3950 15.08833763 78466,6917.899,95.438,540.752,538.777,0.0
54789.0,STARLINK-5446,PAYLOAD,2024-05-18 06:58:24,15.08844952,0.0001635,53.2155,98.5318,111.0891,249.0276,0.00074127,0.00011531,0.0,0 STARLINK-5446,1 54789U 22175AH  24139.29055822  .00011531  00000-0  74127-3 0  9997,2 54789  53.2155  98.5318 0001635 111.0891 249.0276 15.08844952 78489,6917.865,95.437,540.861,538.599,0.0
54789.0,STARLINK-5446,PAYLOAD,2024-05-18 21:16:52,15.08851977,0.0003008,53.2151,95.8567,90.8563,269.2774,0.0011764,0.00018491,0.0,0 STARLINK-5446,1 54789U 22175AH  24139.88672362  .00018491  00000-0  11764-2 0  9995,2 54789  53.2151  95.8567 0003008  90.8563 269.2774 15.08851977 80730,6917.844,95.437,541.79,537.628,0.0
54789.0,STARLINK-5446,PAYLOAD,2024-05-19 03:38:25,15.08829459,0.0001455,53.2153,94.6684,90.0615,270.0544,0.0010092,0.00015805,0.0,0 STARLINK-5446,1 54789U 22175AH  24140.15168763  .00015805  00000-0  10092-2 0  9991,2 54789  53.2153  94.6684 0001455  90.0615 270.0544 15.08829459 78612,6917.913,95.438,540.784,538.771,0.0
54789.0,STARLINK-5446,PAYLOAD,2024-05-19 06:49:12,15.08827599,0.0001339,53.2158,94.0739,87.2473,272.8672,0.0013426,0.00021137,0.0,0 STARLINK-5446,1 54789U 22175AH  24140.28416894  .00021137  00000-0  13426-2 0  9995,2 54789  53.2158  94.0739 0001339  87.2473 272.8672 15.08827599 80790,6917.918,95.438,540.71,538.857,0.0
54789.0,STARLINK-5446,PAYLOAD,2024-05-20 03:29:13,15.08844501,0.0001425,53.2168,90.2073,93.4105,266.705,0.0007585,0.00011806,0.0,0 STARLINK-5446,1 54789U 22175AH  24141.14529144  .00011806  00000-0  75850-3 0  9996,2 54789  53.2168  90.2073 0001425  93.4105 266.7050 15.08844501 78765,6917.867,95.437,540.717,538.746,0.0
54789.0,STARLINK-5446,PAYLOAD,2024-05-20 06:39:59,15.08849107,0.0001422,53.2168,89.6122,94.1607,265.9548,0.0007883,0.00012283,0.0,0 STARLINK-5446,1 54789U 22175AH  24141.27777037  .00012283  00000-0  78830-3 0  9997,2 54789  53.2168  89.6122 0001422  94.1607 265.9548 15.08849107 80947,6917.853,95.437,540.701,538.734,0.0
54789.0,STARLINK-5446,PAYLOAD,2024-05-20 20:58:27,15.08844358,0.0001476,53.2168,86.9333,96.1195,263.9965,0.00027519,4.095e-05,0.0,0 STARLINK-5446,1 54789U 22175AH  24141.87393029  .00004095  00000-0  27519-3 0  9998,2 54789  53.2168  86.9333 0001476  96.1195 263.9965 15.08844358 78877,6917.867,95.437,540.753,538.711,0.0
54789.0,STARLINK-5446,PAYLOAD,2024-05-21 06:30:46,15.08834664,0.0001352,53.2171,85.1497,101.6155,258.4989,1.7722e-05,-6e-08,0.0,0 STARLINK-5446,1 54789U 22175AH  24142.27137348 -.00000006  00000-0  17722-4 0  9998,2 54789  53.2171  85.1497 0001352 101.6155 258.4989 15.08834664 78935,6917.897,95.438,540.697,538.826,0.0
54789.0,STARLINK-5446,PAYLOAD,2024-05-22 06:21:33,15.08843246,0.0001333,53.2174,80.69,104.5053,255.6087,9.0681e-06,-1.44e-06,0.0,0 STARLINK-5446,1 54789U 22175AH  24143.26497098 -.00000144  00000-0  90681-5 0  9998,2 54789  53.2174  80.6900 0001333 104.5053 255.6087 15.08843246 79086,6917.87,95.437,540.658,538.813,0.0
